{
"type": "FeatureCollection",
"name": "road_network",
"crs": { "type": "name", "properties": { "name": "urn:ogc:def:crs:OGC:1.3:CRS84" } },
"features": [
{ "type": "Feature", "properties": { "road_id": "R0001", "road_class": "Trunk B", "surface": "Paved", "speed_kmh": 55 }, "geometry": { "type": "LineString", "coordinates": [ [ 9.49937486734826, 10.797578925852623 ], [ 9.699795266214545, 10.827229898694602 ], [ 9.904872303738339, 10.793165895965052 ] ] } },
{ "type": "Feature", "properties": { "road_id": "R0002", "road_class": "Trunk B", "surface": "Paved", "speed_kmh": 55 }, "geometry": { "type": "LineString", "coordinates": [ [ 9.49937486734826, 10.797578925852623 ], [ 9.640703795102439, 10.608620579307962 ], [ 9.750045905793195, 10.471292552260449 ] ] } },
{ "type": "Feature", "properties": { "road_id": "R0003", "road_class": "Trunk B", "surface": "Earth", "speed_kmh": 30 }, "geometry": { "type": "LineString", "coordinates": [ [ 9.49937486734826, 10.797578925852623 ], [ 9.257323122551638, 10.776116282228957 ], [ 9.079670950495208, 10.779171937095303 ] ] } },
{ "type": "Feature", "properties": { "road_id": "R0004", "road_class": "Trunk B", "surface": "Paved", "speed_kmh": 55 }, "geometry": { "type": "LineString", "coordinates": [ [ 8.562776863248464, 11.497143100289952 ], [ 8.516560407267189, 11.354559375666557 ], [ 8.451144927679564, 11.206700020023503 ] ] } },
{ "type": "Feature", "properties": { "road_id": "R0005", "road_class": "Trunk A", "surface": "Earth", "speed_kmh": 44 }, "geometry": { "type": "LineString", "coordinates": [ [ 8.562776863248464, 11.497143100289952 ], [ 8.353599431378001, 11.414415030531629 ], [ 8.18026379819562, 11.422409970704344 ] ] } },
{ "type": "Feature", "properties": { "road_id": "R0006", "road_class": "Local", "surface": "Gravel", "speed_kmh": 32 }, "geometry": { "type": "LineString", "coordinates": [ [ 8.562776863248464, 11.497143100289952 ], [ 8.789227749547891, 11.513897424647341 ], [ 8.968489544965824, 11.532170626016615 ] ] } },
{ "type": "Feature", "properties": { "road_id": "R0007", "road_class": "Trunk B", "surface": "Paved", "speed_kmh": 55 }, "geometry": { "type": "LineString", "coordinates": [ [ 9.394044347327135, 8.48179830738599 ], [ 9.243787394744086, 8.380033843437126 ], [ 9.129424931287575, 8.289055967818266 ] ] } },
{ "type": "Feature", "properties": { "road_id": "R0008", "road_class": "Trunk A", "surface": "Gravel", "speed_kmh": 80 }, "geometry": { "type": "LineString", "coordinates": [ [ 9.394044347327135, 8.48179830738599 ], [ 9.476308872468474, 8.663303341813357 ], [ 9.474368956663264, 8.811252188806199 ] ] } },
{ "type": "Feature", "properties": { "road_id": "R0009", "road_class": "Trunk A", "surface": "Gravel", "speed_kmh": 80 }, "geometry": { "type": "LineString", "coordinates": [ [ 9.394044347327135, 8.48179830738599 ], [ 9.438303573142854, 8.33200131285601 ], [ 9.447947975623125, 8.121683208477307 ] ] } },
{ "type": "Feature", "properties": { "road_id": "R0010", "road_class": "Trunk A", "surface": "Paved", "speed_kmh": 80 }, "geometry": { "type": "LineString", "coordinates": [ [ 6.907984212630908, 10.586413376100896 ], [ 6.964436523536091, 10.395744836907218 ], [ 6.952015381992922, 10.23157449355625 ] ] } },
{ "type": "Feature", "properties": { "road_id": "R0011", "road_class": "Local", "surface": "Paved", "speed_kmh": 32 }, "geometry": { "type": "LineString", "coordinates": [ [ 6.907984212630908, 10.586413376100896 ], [ 7.044931431573342, 10.695984213917056 ], [ 7.198913984924717, 10.811341007801396 ] ] } },
{ "type": "Feature", "properties": { "road_id": "R0012", "road_class": "Trunk A", "surface": "Paved", "speed_kmh": 80 }, "geometry": { "type": "LineString", "coordinates": [ [ 6.907984212630908, 10.586413376100896 ], [ 6.792396868354787, 10.74334337455053 ], [ 6.637775683561786, 10.841529592367259 ] ] } },
{ "type": "Feature", "properties": { "road_id": "R0013", "road_class": "Trunk B", "surface": "Paved", "speed_kmh": 55 }, "geometry": { "type": "LineString", "coordinates": [ [ 6.730058792737305, 9.349937394660207 ], [ 6.873658513578804, 9.395375693582331 ], [ 6.895724798881769, 9.411926831068914 ] ] } },
{ "type": "Feature", "properties": { "road_id": "R0014", "road_class": "Trunk B", "surface": "Gravel", "speed_kmh": 55 }, "geometry": { "type": "LineString", "coordinates": [ [ 6.730058792737305, 9.349937394660207 ], [ 6.606396799346471, 9.283388516119379 ], [ 6.539722918497143, 9.222305327076992 ] ] } },
{ "type": "Feature", "properties": { "road_id": "R0015", "road_class": "Local", "surface": "Paved", "speed_kmh": 32 }, "geometry": { "type": "LineString", "coordinates": [ [ 6.730058792737305, 9.349937394660207 ], [ 6.993233745018726, 9.390594111523946 ], [ 7.154805042596538, 9.335301650691569 ] ] } },
{ "type": "Feature", "properties": { "road_id": "R0016", "road_class": "Trunk B", "surface": "Gravel", "speed_kmh": 55 }, "geometry": { "type": "LineString", "coordinates": [ [ 8.33064523895418, 8.157545205511449 ], [ 8.161602133431131, 8.102509084480513 ], [ 8.015732997542028, 8.07665922737856 ] ] } },
{ "type": "Feature", "properties": { "road_id": "R0017", "road_class": "Trunk A", "surface": "Earth", "speed_kmh": 44 }, "geometry": { "type": "LineString", "coordinates": [ [ 8.33064523895418, 8.157545205511449 ], [ 8.45374091906274, 8.195423989299591 ], [ 8.662534786094817, 8.266909134137991 ] ] } },
{ "type": "Feature", "properties": { "road_id": "R0018", "road_class": "Local", "surface": "Earth", "speed_kmh": 18 }, "geometry": { "type": "LineString", "coordinates": [ [ 8.33064523895418, 8.157545205511449 ], [ 8.322835519019355, 8.341296249450842 ], [ 8.269187201879047, 8.538867894811899 ] ] } },
{ "type": "Feature", "properties": { "road_id": "R0019", "road_class": "Trunk B", "surface": "Paved", "speed_kmh": 55 }, "geometry": { "type": "LineString", "coordinates": [ [ 7.356573062779793, 10.347370939472503 ], [ 7.525450736636125, 10.390141965571035 ], [ 7.63580685235394, 10.444634959571513 ] ] } },
{ "type": "Feature", "properties": { "road_id": "R0020", "road_class": "Trunk A", "surface": "Earth", "speed_kmh": 44 }, "geometry": { "type": "LineString", "coordinates": [ [ 7.356573062779793, 10.347370939472503 ], [ 7.320536887016206, 10.212263142654356 ], [ 7.279112117200917, 10.042402324870666 ] ] } },
{ "type": "Feature", "properties": { "road_id": "R0021", "road_class": "Trunk A", "surface": "Paved", "speed_kmh": 80 }, "geometry": { "type": "LineString", "coordinates": [ [ 7.356573062779793, 10.347370939472503 ], [ 7.148319934555458, 10.255510474514375 ], [ 6.952015381992922, 10.23157449355625 ] ] } },
{ "type": "Feature", "properties": { "road_id": "R0022", "road_class": "Local", "surface": "Paved", "speed_kmh": 32 }, "geometry": { "type": "LineString", "coordinates": [ [ 8.015732997542028, 8.07665922737856 ], [ 7.824371931378337, 8.07946477408356 ], [ 7.648713136332433, 8.107873417342962 ] ] } },
{ "type": "Feature", "properties": { "road_id": "R0023", "road_class": "Local", "surface": "Paved", "speed_kmh": 32 }, "geometry": { "type": "LineString", "coordinates": [ [ 8.015732997542028, 8.07665922737856 ], [ 8.019924918283227, 7.790615744679631 ], [ 8.100778562848683, 7.557129102006074 ] ] } },
{ "type": "Feature", "properties": { "road_id": "R0024", "road_class": "Trunk B", "surface": "Earth", "speed_kmh": 30 }, "geometry": { "type": "LineString", "coordinates": [ [ 7.501181220489037, 8.428674801752825 ], [ 7.356201586130229, 8.456905048231851 ], [ 7.190621533026248, 8.434834529591171 ] ] } },
{ "type": "Feature", "properties": { "road_id": "R0025", "road_class": "Local", "surface": "Paved", "speed_kmh": 32 }, "geometry": { "type": "LineString", "coordinates": [ [ 7.501181220489037, 8.428674801752825 ], [ 7.523751026127339, 8.264800244841135 ], [ 7.648713136332433, 8.107873417342962 ] ] } },
{ "type": "Feature", "properties": { "road_id": "R0026", "road_class": "Local", "surface": "Paved", "speed_kmh": 32 }, "geometry": { "type": "LineString", "coordinates": [ [ 7.501181220489037, 8.428674801752825 ], [ 7.454793207387286, 8.550312741507399 ], [ 7.414371617900314, 8.782406400377329 ] ] } },
{ "type": "Feature", "properties": { "road_id": "R0027", "road_class": "Trunk B", "surface": "Earth", "speed_kmh": 30 }, "geometry": { "type": "LineString", "coordinates": [ [ 7.154805042596538, 9.335301650691569 ], [ 7.041407493182319, 9.339854284476111 ], [ 6.895724798881769, 9.411926831068914 ] ] } },
{ "type": "Feature", "properties": { "road_id": "R0028", "road_class": "Trunk B", "surface": "Paved", "speed_kmh": 55 }, "geometry": { "type": "LineString", "coordinates": [ [ 7.154805042596538, 9.335301650691569 ], [ 7.215870672043082, 9.180145534992752 ], [ 7.290589724586134, 9.090321506975645 ] ] } },
{ "type": "Feature", "properties": { "road_id": "R0029", "road_class": "Trunk B", "surface": "Paved", "speed_kmh": 55 }, "geometry": { "type": "LineString", "coordinates": [ [ 7.154805042596538, 9.335301650691569 ], [ 7.301880922230985, 9.470764785442871 ], [ 7.411483665203487, 9.572796166343142 ] ] } },
{ "type": "Feature", "properties": { "road_id": "R0030", "road_class": "Local", "surface": "Earth", "speed_kmh": 18 }, "geometry": { "type": "LineString", "coordinates": [ [ 8.253759760252102, 9.239379701406516 ], [ 8.387975823309024, 9.316340628761692 ], [ 8.573140778373352, 9.34384108670168 ] ] } },
{ "type": "Feature", "properties": { "road_id": "R0031", "road_class": "Trunk A", "surface": "Earth", "speed_kmh": 44 }, "geometry": { "type": "LineString", "coordinates": [ [ 8.253759760252102, 9.239379701406516 ], [ 8.237584086467193, 9.05935268811502 ], [ 8.24920478925254, 8.889162451179995 ] ] } },
{ "type": "Feature", "properties": { "road_id": "R0032", "road_class": "Trunk B", "surface": "Gravel", "speed_kmh": 55 }, "geometry": { "type": "LineString", "coordinates": [ [ 8.253759760252102, 9.239379701406516 ], [ 8.082317490952102, 9.263848673468758 ], [ 7.887731974309252, 9.202838306640844 ] ] } },
{ "type": "Feature", "properties": { "road_id": "R0033", "road_class": "Local", "surface": "Earth", "speed_kmh": 18 }, "geometry": { "type": "LineString", "coordinates": [ [ 7.98160591062591, 9.911810372991821 ], [ 7.841364548538583, 10.000690630555479 ], [ 7.682063233387649, 10.028928862693245 ] ] } },
{ "type": "Feature", "properties": { "road_id": "R0034", "road_class": "Local", "surface": "Paved", "speed_kmh": 32 }, "geometry": { "type": "LineString", "coordinates": [ [ 7.98160591062591, 9.911810372991821 ], [ 8.02100169223727, 9.727047998902911 ], [ 8.044673243627393, 9.563108723635205 ] ] } },
{ "type": "Feature", "properties": { "road_id": "R0035", "road_class": "Trunk A", "surface": "Paved", "speed_kmh": 80 }, "geometry": { "type": "LineString", "coordinates": [ [ 7.98160591062591, 9.911810372991821 ], [ 7.902904728539901, 9.767401096350552 ], [ 7.724830443503041, 9.648660202505461 ] ] } },
{ "type": "Feature", "properties": { "road_id": "R0036", "road_class": "Local", "surface": "Earth", "speed_kmh": 18 }, "geometry": { "type": "LineString", "coordinates": [ [ 8.345417466127078, 9.694220508976933 ], [ 8.148273116322054, 9.616493684856259 ], [ 8.044673243627393, 9.563108723635205 ] ] } },
{ "type": "Feature", "properties": { "road_id": "R0037", "road_class": "Local", "surface": "Gravel", "speed_kmh": 32 }, "geometry": { "type": "LineString", "coordinates": [ [ 8.345417466127078, 9.694220508976933 ], [ 8.477327253192822, 9.786930054522918 ], [ 8.662282529531188, 9.872324225812715 ] ] } },
{ "type": "Feature", "properties": { "road_id": "R0038", "road_class": "Trunk A", "surface": "Gravel", "speed_kmh": 80 }, "geometry": { "type": "LineString", "coordinates": [ [ 8.345417466127078, 9.694220508976933 ], [ 8.441753257358997, 9.528021022559688 ], [ 8.573140778373352, 9.34384108670168 ] ] } },
{ "type": "Feature", "properties": { "road_id": "R0039", "road_class": "Trunk B", "surface": "Paved", "speed_kmh": 55 }, "geometry": { "type": "LineString", "coordinates": [ [ 8.044673243627393, 9.563108723635205 ], [ 7.860891278656689, 9.635854365066129 ], [ 7.724830443503041, 9.648660202505461 ] ] } },
{ "type": "Feature", "properties": { "road_id": "R0040", "road_class": "Local", "surface": "Earth", "speed_kmh": 18 }, "geometry": { "type": "LineString", "coordinates": [ [ 6.176668716304219, 10.165627631998674 ], [ 6.159858005686369, 10.051033345098396 ], [ 6.045392949987643, 9.884242729522066 ] ] } },
{ "type": "Feature", "properties": { "road_id": "R0041", "road_class": "Local", "surface": "Paved", "speed_kmh": 32 }, "geometry": { "type": "LineString", "coordinates": [ [ 6.176668716304219, 10.165627631998674 ], [ 6.257546057797099, 10.320509830900665 ], [ 6.321633682568325, 10.474875618735672 ] ] } },
{ "type": "Feature", "properties": { "road_id": "R0042", "road_class": "Trunk A", "surface": "Paved", "speed_kmh": 80 }, "geometry": { "type": "LineString", "coordinates": [ [ 6.176668716304219, 10.165627631998674 ], [ 6.403584990550105, 10.235632464048622 ], [ 6.607343125178218, 10.323839780424496 ] ] } },
{ "type": "Feature", "properties": { "road_id": "R0043", "road_class": "Local", "surface": "Paved", "speed_kmh": 32 }, "geometry": { "type": "LineString", "coordinates": [ [ 8.744523749555004, 8.529470932372268 ], [ 8.730002435957484, 8.394644245821967 ], [ 8.662534786094817, 8.266909134137991 ] ] } },
{ "type": "Feature", "properties": { "road_id": "R0044", "road_class": "Local", "surface": "Earth", "speed_kmh": 18 }, "geometry": { "type": "LineString", "coordinates": [ [ 8.744523749555004, 8.529470932372268 ], [ 8.653177633279611, 8.673765514639879 ], [ 8.587228993212687, 8.792586922367407 ] ] } },
{ "type": "Feature", "properties": { "road_id": "R0045", "road_class": "Trunk B", "surface": "Paved", "speed_kmh": 55 }, "geometry": { "type": "LineString", "coordinates": [ [ 8.744523749555004, 8.529470932372268 ], [ 8.932283886372446, 8.636801279436371 ], [ 9.113242731633786, 8.765185366334542 ] ] } },
{ "type": "Feature", "properties": { "road_id": "R0046", "road_class": "Trunk B", "surface": "Earth", "speed_kmh": 30 }, "geometry": { "type": "LineString", "coordinates": [ [ 7.290589724586134, 9.090321506975645 ], [ 7.109650546024659, 9.010127515489595 ], [ 7.044892038238523, 8.959544389357244 ] ] } },
{ "type": "Feature", "properties": { "road_id": "R0047", "road_class": "Local", "surface": "Paved", "speed_kmh": 32 }, "geometry": { "type": "LineString", "coordinates": [ [ 7.290589724586134, 9.090321506975645 ], [ 7.425117139546937, 9.082369209607302 ], [ 7.591838370930123, 9.125135002509198 ] ] } },
{ "type": "Feature", "properties": { "road_id": "R0048", "road_class": "Local", "surface": "Earth", "speed_kmh": 18 }, "geometry": { "type": "LineString", "coordinates": [ [ 8.964875835750217, 11.222470529042754 ], [ 8.982082857384704, 11.390727658580053 ], [ 8.968489544965824, 11.532170626016615 ] ] } },
{ "type": "Feature", "properties": { "road_id": "R0049", "road_class": "Trunk A", "surface": "Paved", "speed_kmh": 80 }, "geometry": { "type": "LineString", "coordinates": [ [ 8.964875835750217, 11.222470529042754 ], [ 9.140735231594878, 11.247996544462564 ], [ 9.284368905525486, 11.254834609080202 ] ] } },
{ "type": "Feature", "properties": { "road_id": "R0050", "road_class": "Local", "surface": "Paved", "speed_kmh": 32 }, "geometry": { "type": "LineString", "coordinates": [ [ 8.964875835750217, 11.222470529042754 ], [ 8.789864192880515, 11.108812122214522 ], [ 8.656809138257499, 10.976824367896205 ] ] } },
{ "type": "Feature", "properties": { "road_id": "R0051", "road_class": "Local", "surface": "Gravel", "speed_kmh": 32 }, "geometry": { "type": "LineString", "coordinates": [ [ 7.044892038238523, 8.959544389357244 ], [ 6.994271662672717, 8.969808256923244 ], [ 6.911573730316479, 8.786794521779745 ] ] } },
{ "type": "Feature", "properties": { "road_id": "R0052", "road_class": "Trunk B", "surface": "Paved", "speed_kmh": 55 }, "geometry": { "type": "LineString", "coordinates": [ [ 7.044892038238523, 8.959544389357244 ], [ 7.104896889651429, 9.164113507601481 ], [ 7.154805042596538, 9.335301650691569 ] ] } },
{ "type": "Feature", "properties": { "road_id": "R0053", "road_class": "Local", "surface": "Paved", "speed_kmh": 32 }, "geometry": { "type": "LineString", "coordinates": [ [ 10.481951788838014, 10.893749018809983 ], [ 10.563286670999819, 10.731919785984383 ], [ 10.562728336419411, 10.561815301766293 ] ] } },
{ "type": "Feature", "properties": { "road_id": "R0054", "road_class": "Local", "surface": "Earth", "speed_kmh": 18 }, "geometry": { "type": "LineString", "coordinates": [ [ 10.481951788838014, 10.893749018809983 ], [ 10.488879015126297, 11.030197820803616 ], [ 10.350225412238707, 11.262127271579411 ] ] } },
{ "type": "Feature", "properties": { "road_id": "R0055", "road_class": "Local", "surface": "Gravel", "speed_kmh": 32 }, "geometry": { "type": "LineString", "coordinates": [ [ 10.481951788838014, 10.893749018809983 ], [ 10.253869193017234, 11.003100712528203 ], [ 10.067823822003461, 11.092445672814332 ] ] } },
{ "type": "Feature", "properties": { "road_id": "R0056", "road_class": "Trunk A", "surface": "Gravel", "speed_kmh": 80 }, "geometry": { "type": "LineString", "coordinates": [ [ 7.97358380334411, 10.338387715197703 ], [ 7.791619620129524, 10.421554160221707 ], [ 7.63580685235394, 10.444634959571513 ] ] } },
{ "type": "Feature", "properties": { "road_id": "R0057", "road_class": "Local", "surface": "Paved", "speed_kmh": 32 }, "geometry": { "type": "LineString", "coordinates": [ [ 7.97358380334411, 10.338387715197703 ], [ 7.880207705165827, 10.494516732222413 ], [ 7.84272884536101, 10.706740726088233 ] ] } },
{ "type": "Feature", "properties": { "road_id": "R0058", "road_class": "Trunk B", "surface": "Earth", "speed_kmh": 30 }, "geometry": { "type": "LineString", "coordinates": [ [ 7.97358380334411, 10.338387715197703 ], [ 8.135892000886127, 10.323388385949986 ], [ 8.362618952372264, 10.222836584624247 ] ] } },
{ "type": "Feature", "properties": { "road_id": "R0059", "road_class": "Local", "surface": "Paved", "speed_kmh": 32 }, "geometry": { "type": "LineString", "coordinates": [ [ 9.274833161590092, 9.990937742367956 ], [ 9.193786032753762, 9.822971468244175 ], [ 9.066358590952973, 9.677433091263026 ] ] } },
{ "type": "Feature", "properties": { "road_id": "R0060", "road_class": "Local", "surface": "Gravel", "speed_kmh": 32 }, "geometry": { "type": "LineString", "coordinates": [ [ 9.274833161590092, 9.990937742367956 ], [ 9.246772243708174, 10.17556915013815 ], [ 9.164487215918353, 10.359997327335989 ] ] } },
{ "type": "Feature", "properties": { "road_id": "R0061", "road_class": "Trunk A", "surface": "Paved", "speed_kmh": 80 }, "geometry": { "type": "LineString", "coordinates": [ [ 9.274833161590092, 9.990937742367956 ], [ 9.475505742753338, 10.035713019185694 ], [ 9.674279631418738, 10.058604872738417 ] ] } },
{ "type": "Feature", "properties": { "road_id": "R0062", "road_class": "Trunk B", "surface": "Gravel", "speed_kmh": 55 }, "geometry": { "type": "LineString", "coordinates": [ [ 9.353787555135932, 9.361918206421164 ], [ 9.407435674418601, 9.312285474914837 ], [ 9.601497209060179, 9.255940468561421 ] ] } },
{ "type": "Feature", "properties": { "road_id": "R0063", "road_class": "Local", "surface": "Paved", "speed_kmh": 32 }, "geometry": { "type": "LineString", "coordinates": [ [ 9.353787555135932, 9.361918206421164 ], [ 9.188449539201949, 9.533782542762973 ], [ 9.066358590952973, 9.677433091263026 ] ] } },
{ "type": "Feature", "properties": { "road_id": "R0064", "road_class": "Trunk A", "surface": "Gravel", "speed_kmh": 80 }, "geometry": { "type": "LineString", "coordinates": [ [ 9.353787555135932, 9.361918206421164 ], [ 9.159684274971537, 9.344374398427004 ], [ 8.92593500343045, 9.281539817114075 ] ] } },
{ "type": "Feature", "properties": { "road_id": "R0065", "road_class": "Trunk B", "surface": "Gravel", "speed_kmh": 55 }, "geometry": { "type": "LineString", "coordinates": [ [ 7.022031692993263, 11.101255616066743 ], [ 7.157789629000653, 11.156479972619302 ], [ 7.34771172980713, 11.15548887079435 ] ] } },
{ "type": "Feature", "properties": { "road_id": "R0066", "road_class": "Local", "surface": "Paved", "speed_kmh": 32 }, "geometry": { "type": "LineString", "coordinates": [ [ 7.022031692993263, 11.101255616066743 ], [ 7.117473012551994, 10.980036124629793 ], [ 7.198913984924717, 10.811341007801396 ] ] } },
{ "type": "Feature", "properties": { "road_id": "R0067", "road_class": "Local", "surface": "Gravel", "speed_kmh": 32 }, "geometry": { "type": "LineString", "coordinates": [ [ 7.022031692993263, 11.101255616066743 ], [ 6.828691846449377, 10.90735535556315 ], [ 6.637775683561786, 10.841529592367259 ] ] } },
{ "type": "Feature", "properties": { "road_id": "R0068", "road_class": "Trunk B", "surface": "Earth", "speed_kmh": 30 }, "geometry": { "type": "LineString", "coordinates": [ [ 7.414371617900314, 8.782406400377329 ], [ 7.348065196844613, 8.901281740922133 ], [ 7.290589724586134, 9.090321506975645 ] ] } },
{ "type": "Feature", "properties": { "road_id": "R0069", "road_class": "Local", "surface": "Paved", "speed_kmh": 32 }, "geometry": { "type": "LineString", "coordinates": [ [ 7.414371617900314, 8.782406400377329 ], [ 7.540865078100403, 8.971545984188396 ], [ 7.591838370930123, 9.125135002509198 ] ] } },
{ "type": "Feature", "properties": { "road_id": "R0070", "road_class": "Local", "surface": "Earth", "speed_kmh": 18 }, "geometry": { "type": "LineString", "coordinates": [ [ 9.129424931287575, 8.289055967818266 ], [ 9.255942941876697, 8.200095739194422 ], [ 9.447947975623125, 8.121683208477307 ] ] } },
{ "type": "Feature", "properties": { "road_id": "R0071", "road_class": "Trunk B", "surface": "Earth", "speed_kmh": 30 }, "geometry": { "type": "LineString", "coordinates": [ [ 9.129424931287575, 8.289055967818266 ], [ 8.959785735406561, 8.11226500691909 ], [ 8.906959283181518, 8.003526691560833 ] ] } },
{ "type": "Feature", "properties": { "road_id": "R0072", "road_class": "Trunk A", "surface": "Paved", "speed_kmh": 80 }, "geometry": { "type": "LineString", "coordinates": [ [ 6.321633682568325, 10.474875618735672 ], [ 6.470384705470952, 10.373794411054956 ], [ 6.607343125178218, 10.323839780424496 ] ] } },
{ "type": "Feature", "properties": { "road_id": "R0073", "road_class": "Trunk B", "surface": "Gravel", "speed_kmh": 55 }, "geometry": { "type": "LineString", "coordinates": [ [ 6.321633682568325, 10.474875618735672 ], [ 6.496704278031692, 10.647782209682221 ], [ 6.637775683561786, 10.841529592367259 ] ] } },
{ "type": "Feature", "properties": { "road_id": "R0074", "road_class": "Trunk A", "surface": "Paved", "speed_kmh": 80 }, "geometry": { "type": "LineString", "coordinates": [ [ 8.662534786094817, 8.266909134137991 ], [ 8.78534821078266, 8.135517252337578 ], [ 8.906959283181518, 8.003526691560833 ] ] } },
{ "type": "Feature", "properties": { "road_id": "R0075", "road_class": "Trunk B", "surface": "Earth", "speed_kmh": 30 }, "geometry": { "type": "LineString", "coordinates": [ [ 9.779694853872533, 8.555521478924442 ], [ 9.848327373397071, 8.371022560749084 ], [ 9.905195286708626, 8.31766928447345 ] ] } },
{ "type": "Feature", "properties": { "road_id": "R0076", "road_class": "Trunk B", "surface": "Paved", "speed_kmh": 55 }, "geometry": { "type": "LineString", "coordinates": [ [ 9.779694853872533, 8.555521478924442 ], [ 9.56310728140512, 8.540833030227182 ], [ 9.394044347327135, 8.48179830738599 ] ] } },
{ "type": "Feature", "properties": { "road_id": "R0077", "road_class": "Local", "surface": "Gravel", "speed_kmh": 32 }, "geometry": { "type": "LineString", "coordinates": [ [ 9.779694853872533, 8.555521478924442 ], [ 9.637722564091542, 8.73976432761542 ], [ 9.474368956663264, 8.811252188806199 ] ] } },
{ "type": "Feature", "properties": { "road_id": "R0078", "road_class": "Trunk B", "surface": "Paved", "speed_kmh": 55 }, "geometry": { "type": "LineString", "coordinates": [ [ 7.677906158199269, 11.291745563117862 ], [ 7.873773301354674, 11.273261374475556 ], [ 7.972167100905431, 11.296681443433812 ] ] } },
{ "type": "Feature", "properties": { "road_id": "R0079", "road_class": "Local", "surface": "Paved", "speed_kmh": 32 }, "geometry": { "type": "LineString", "coordinates": [ [ 7.677906158199269, 11.291745563117862 ], [ 7.535132073324095, 11.242634577130309 ], [ 7.34771172980713, 11.15548887079435 ] ] } },
{ "type": "Feature", "properties": { "road_id": "R0080", "road_class": "Trunk A", "surface": "Earth", "speed_kmh": 44 }, "geometry": { "type": "LineString", "coordinates": [ [ 7.677906158199269, 11.291745563117862 ], [ 7.672017069718027, 11.026762690324048 ], [ 7.527613491840568, 10.7983195377632 ] ] } },
{ "type": "Feature", "properties": { "road_id": "R0081", "road_class": "Trunk B", "surface": "Gravel", "speed_kmh": 55 }, "geometry": { "type": "LineString", "coordinates": [ [ 6.919496373081316, 7.756911462987478 ], [ 7.090147281946552, 7.709409972365258 ], [ 7.268143788711647, 7.636984407505341 ] ] } },
{ "type": "Feature", "properties": { "road_id": "R0082", "road_class": "Trunk B", "surface": "Earth", "speed_kmh": 30 }, "geometry": { "type": "LineString", "coordinates": [ [ 6.919496373081316, 7.756911462987478 ], [ 7.061416408540886, 7.898976106276427 ], [ 7.160214654599046, 8.056332198495888 ] ] } },
{ "type": "Feature", "properties": { "road_id": "R0083", "road_class": "Trunk B", "surface": "Gravel", "speed_kmh": 55 }, "geometry": { "type": "LineString", "coordinates": [ [ 6.919496373081316, 7.756911462987478 ], [ 6.83595573062823, 7.906969946638889 ], [ 6.704182069616349, 8.087754631468291 ] ] } },
{ "type": "Feature", "properties": { "road_id": "R0084", "road_class": "Local", "surface": "Paved", "speed_kmh": 32 }, "geometry": { "type": "LineString", "coordinates": [ [ 9.531444780241292, 11.55579373171968 ], [ 9.693271952930049, 11.365805335196663 ], [ 9.769962936772973, 11.302967502083449 ] ] } },
{ "type": "Feature", "properties": { "road_id": "R0085", "road_class": "Trunk B", "surface": "Paved", "speed_kmh": 55 }, "geometry": { "type": "LineString", "coordinates": [ [ 9.531444780241292, 11.55579373171968 ], [ 9.389255155757978, 11.427329102108008 ], [ 9.284368905525486, 11.254834609080202 ] ] } },
{ "type": "Feature", "properties": { "road_id": "R0086", "road_class": "Local", "surface": "Earth", "speed_kmh": 18 }, "geometry": { "type": "LineString", "coordinates": [ [ 9.531444780241292, 11.55579373171968 ], [ 9.311967343306412, 11.554830587814648 ], [ 8.968489544965824, 11.532170626016615 ] ] } },
{ "type": "Feature", "properties": { "road_id": "R0087", "road_class": "Local", "surface": "Gravel", "speed_kmh": 32 }, "geometry": { "type": "LineString", "coordinates": [ [ 9.447947975623125, 8.121683208477307 ], [ 9.636969538297945, 8.250538261249867 ], [ 9.905195286708626, 8.31766928447345 ] ] } },
{ "type": "Feature", "properties": { "road_id": "R0088", "road_class": "Local", "surface": "Earth", "speed_kmh": 18 }, "geometry": { "type": "LineString", "coordinates": [ [ 5.80051466129935, 9.60776882426766 ], [ 5.95700124697742, 9.741182470596689 ], [ 6.045392949987643, 9.884242729522066 ] ] } },
{ "type": "Feature", "properties": { "road_id": "R0089", "road_class": "Trunk B", "surface": "Earth", "speed_kmh": 30 }, "geometry": { "type": "LineString", "coordinates": [ [ 5.80051466129935, 9.60776882426766 ], [ 5.803506244069154, 9.4185012594798 ], [ 5.728507153540689, 9.237286747448366 ] ] } },
{ "type": "Feature", "properties": { "road_id": "R0090", "road_class": "Trunk B", "surface": "Paved", "speed_kmh": 55 }, "geometry": { "type": "LineString", "coordinates": [ [ 5.80051466129935, 9.60776882426766 ], [ 5.979330497641173, 9.504244834718122 ], [ 6.194516730177138, 9.418037020112472 ] ] } },
{ "type": "Feature", "properties": { "road_id": "R0091", "road_class": "Local", "surface": "Earth", "speed_kmh": 18 }, "geometry": { "type": "LineString", "coordinates": [ [ 6.607343125178218, 10.323839780424496 ], [ 6.81971302292304, 10.285807832968709 ], [ 6.952015381992922, 10.23157449355625 ] ] } },
{ "type": "Feature", "properties": { "road_id": "R0092", "road_class": "Trunk A", "surface": "Earth", "speed_kmh": 44 }, "geometry": { "type": "LineString", "coordinates": [ [ 6.607343125178218, 10.323839780424496 ], [ 6.610268365897534, 10.132852192578916 ], [ 6.591091366131979, 9.96595746594055 ] ] } },
{ "type": "Feature", "properties": { "road_id": "R0093", "road_class": "Trunk B", "surface": "Paved", "speed_kmh": 55 }, "geometry": { "type": "LineString", "coordinates": [ [ 10.701973441810257, 10.218354590328225 ], [ 10.527172480670806, 10.170430989117213 ], [ 10.387920476334909, 10.109919145977194 ] ] } },
{ "type": "Feature", "properties": { "road_id": "R0094", "road_class": "Trunk A", "surface": "Earth", "speed_kmh": 44 }, "geometry": { "type": "LineString", "coordinates": [ [ 10.701973441810257, 10.218354590328225 ], [ 10.600322339286548, 10.365744714199439 ], [ 10.562728336419411, 10.561815301766293 ] ] } },
{ "type": "Feature", "properties": { "road_id": "R0095", "road_class": "Local", "surface": "Earth", "speed_kmh": 18 }, "geometry": { "type": "LineString", "coordinates": [ [ 10.701973441810257, 10.218354590328225 ], [ 10.639720369604477, 9.958982062715007 ], [ 10.57799992752993, 9.741476737342769 ] ] } },
{ "type": "Feature", "properties": { "road_id": "R0096", "road_class": "Trunk B", "surface": "Gravel", "speed_kmh": 55 }, "geometry": { "type": "LineString", "coordinates": [ [ 7.160214654599046, 8.056332198495888 ], [ 7.205213097093069, 8.237205964079472 ], [ 7.190621533026248, 8.434834529591171 ] ] } },
{ "type": "Feature", "properties": { "road_id": "R0097", "road_class": "Local", "surface": "Earth", "speed_kmh": 18 }, "geometry": { "type": "LineString", "coordinates": [ [ 7.160214654599046, 8.056332198495888 ], [ 7.036083159809201, 8.239170258297445 ], [ 6.91922563437382, 8.358321135727463 ] ] } },
{ "type": "Feature", "properties": { "road_id": "R0098", "road_class": "Trunk B", "surface": "Paved", "speed_kmh": 55 }, "geometry": { "type": "LineString", "coordinates": [ [ 10.350225412238707, 11.262127271579411 ], [ 10.252851453884059, 11.151820967966271 ], [ 10.067823822003461, 11.092445672814332 ] ] } },
{ "type": "Feature", "properties": { "road_id": "R0099", "road_class": "Trunk B", "surface": "Paved", "speed_kmh": 55 }, "geometry": { "type": "LineString", "coordinates": [ [ 10.350225412238707, 11.262127271579411 ], [ 10.104853294526981, 11.327515194091403 ], [ 9.769962936772973, 11.302967502083449 ] ] } },
{ "type": "Feature", "properties": { "road_id": "R0100", "road_class": "Local", "surface": "Earth", "speed_kmh": 18 }, "geometry": { "type": "LineString", "coordinates": [ [ 8.100778562848683, 7.557129102006074 ], [ 7.992658657206399, 7.460301606608423 ], [ 7.849210390163787, 7.414210713751885 ] ] } },
{ "type": "Feature", "properties": { "road_id": "R0101", "road_class": "Local", "surface": "Earth", "speed_kmh": 18 }, "geometry": { "type": "LineString", "coordinates": [ [ 8.100778562848683, 7.557129102006074 ], [ 7.890057220047689, 7.564070500729289 ], [ 7.666501227364018, 7.571661267049162 ] ] } },
{ "type": "Feature", "properties": { "road_id": "R0102", "road_class": "Local", "surface": "Paved", "speed_kmh": 32 }, "geometry": { "type": "LineString", "coordinates": [ [ 8.100778562848683, 7.557129102006074 ], [ 8.351193891356719, 7.48145892195127 ], [ 8.533948414570364, 7.475567751889352 ] ] } },
{ "type": "Feature", "properties": { "road_id": "R0103", "road_class": "Trunk A", "surface": "Paved", "speed_kmh": 80 }, "geometry": { "type": "LineString", "coordinates": [ [ 10.57799992752993, 9.741476737342769 ], [ 10.346111967177585, 9.723411951537743 ], [ 10.195879388851621, 9.766269391921798 ] ] } },
{ "type": "Feature", "properties": { "road_id": "R0104", "road_class": "Trunk A", "surface": "Earth", "speed_kmh": 44 }, "geometry": { "type": "LineString", "coordinates": [ [ 10.57799992752993, 9.741476737342769 ], [ 10.490783345004868, 9.880736305064735 ], [ 10.387920476334909, 10.109919145977194 ] ] } },
{ "type": "Feature", "properties": { "road_id": "R0105", "road_class": "Local", "surface": "Earth", "speed_kmh": 18 }, "geometry": { "type": "LineString", "coordinates": [ [ 6.895724798881769, 9.411926831068914 ], [ 6.970263429049337, 9.555845544291797 ], [ 7.038450628831415, 9.748903507299904 ] ] } },
{ "type": "Feature", "properties": { "road_id": "R0106", "road_class": "Local", "surface": "Paved", "speed_kmh": 32 }, "geometry": { "type": "LineString", "coordinates": [ [ 8.656809138257499, 10.976824367896205 ], [ 8.541387219258489, 11.1108653637421 ], [ 8.451144927679564, 11.206700020023503 ] ] } },
{ "type": "Feature", "properties": { "road_id": "R0107", "road_class": "Trunk A", "surface": "Earth", "speed_kmh": 44 }, "geometry": { "type": "LineString", "coordinates": [ [ 8.656809138257499, 10.976824367896205 ], [ 8.610659006840924, 10.793007091274427 ], [ 8.63454921661865, 10.629021352091643 ] ] } },
{ "type": "Feature", "properties": { "road_id": "R0108", "road_class": "Trunk A", "surface": "Paved", "speed_kmh": 80 }, "geometry": { "type": "LineString", "coordinates": [ [ 9.663385649420821, 9.686833889981292 ], [ 9.705064215215991, 9.864563094688943 ], [ 9.674279631418738, 10.058604872738417 ] ] } },
{ "type": "Feature", "properties": { "road_id": "R0109", "road_class": "Trunk B", "surface": "Gravel", "speed_kmh": 55 }, "geometry": { "type": "LineString", "coordinates": [ [ 9.663385649420821, 9.686833889981292 ], [ 9.593407405332483, 9.477103028472095 ], [ 9.601497209060179, 9.255940468561421 ] ] } },
{ "type": "Feature", "properties": { "road_id": "R0110", "road_class": "Trunk B", "surface": "Paved", "speed_kmh": 55 }, "geometry": { "type": "LineString", "coordinates": [ [ 9.663385649420821, 9.686833889981292 ], [ 9.494598110473945, 9.484672821824192 ], [ 9.353787555135932, 9.361918206421164 ] ] } },
{ "type": "Feature", "properties": { "road_id": "R0111", "road_class": "Trunk B", "surface": "Earth", "speed_kmh": 30 }, "geometry": { "type": "LineString", "coordinates": [ [ 7.484973128466805, 7.835445065205331 ], [ 7.344983279328078, 7.750992488102141 ], [ 7.268143788711647, 7.636984407505341 ] ] } },
{ "type": "Feature", "properties": { "road_id": "R0112", "road_class": "Local", "surface": "Paved", "speed_kmh": 32 }, "geometry": { "type": "LineString", "coordinates": [ [ 7.484973128466805, 7.835445065205331 ], [ 7.558693046214011, 7.99283651239194 ], [ 7.648713136332433, 8.107873417342962 ] ] } },
{ "type": "Feature", "properties": { "road_id": "R0113", "road_class": "Local", "surface": "Earth", "speed_kmh": 18 }, "geometry": { "type": "LineString", "coordinates": [ [ 7.484973128466805, 7.835445065205331 ], [ 7.558342694906938, 7.696240911129931 ], [ 7.666501227364018, 7.571661267049162 ] ] } },
{ "type": "Feature", "properties": { "road_id": "R0114", "road_class": "Trunk A", "surface": "Paved", "speed_kmh": 80 }, "geometry": { "type": "LineString", "coordinates": [ [ 8.662282529531188, 9.872324225812715 ], [ 8.73136968291905, 10.069351468145074 ], [ 8.783004876313395, 10.270068021489454 ] ] } },
{ "type": "Feature", "properties": { "road_id": "R0115", "road_class": "Trunk A", "surface": "Paved", "speed_kmh": 80 }, "geometry": { "type": "LineString", "coordinates": [ [ 8.662282529531188, 9.872324225812715 ], [ 8.872573313564905, 9.752681718548953 ], [ 9.066358590952973, 9.677433091263026 ] ] } },
{ "type": "Feature", "properties": { "road_id": "R0116", "road_class": "Local", "surface": "Gravel", "speed_kmh": 32 }, "geometry": { "type": "LineString", "coordinates": [ [ 8.92593500343045, 9.281539817114075 ], [ 8.913819033078195, 9.082032676281074 ], [ 8.941800702831175, 8.948995893881015 ] ] } },
{ "type": "Feature", "properties": { "road_id": "R0117", "road_class": "Trunk B", "surface": "Paved", "speed_kmh": 55 }, "geometry": { "type": "LineString", "coordinates": [ [ 8.92593500343045, 9.281539817114075 ], [ 8.725976968281227, 9.318743906862634 ], [ 8.573140778373352, 9.34384108670168 ] ] } },
{ "type": "Feature", "properties": { "road_id": "R0118", "road_class": "Local", "surface": "Earth", "speed_kmh": 18 }, "geometry": { "type": "LineString", "coordinates": [ [ 8.92593500343045, 9.281539817114075 ], [ 8.96232159739743, 9.472414816932442 ], [ 9.066358590952973, 9.677433091263026 ] ] } },
{ "type": "Feature", "properties": { "road_id": "R0119", "road_class": "Local", "surface": "Gravel", "speed_kmh": 32 }, "geometry": { "type": "LineString", "coordinates": [ [ 6.539722918497143, 9.222305327076992 ], [ 6.345783237331561, 9.338229557022197 ], [ 6.194516730177138, 9.418037020112472 ] ] } },
{ "type": "Feature", "properties": { "road_id": "R0120", "road_class": "Local", "surface": "Gravel", "speed_kmh": 32 }, "geometry": { "type": "LineString", "coordinates": [ [ 6.539722918497143, 9.222305327076992 ], [ 6.733911562788158, 9.286419427132321 ], [ 6.895724798881769, 9.411926831068914 ] ] } },
{ "type": "Feature", "properties": { "road_id": "R0121", "road_class": "Local", "surface": "Earth", "speed_kmh": 18 }, "geometry": { "type": "LineString", "coordinates": [ [ 7.198913984924717, 10.811341007801396 ], [ 7.375649900471012, 10.876336312707998 ], [ 7.527613491840568, 10.7983195377632 ] ] } },
{ "type": "Feature", "properties": { "road_id": "R0122", "road_class": "Trunk B", "surface": "Earth", "speed_kmh": 30 }, "geometry": { "type": "LineString", "coordinates": [ [ 8.18026379819562, 11.422409970704344 ], [ 8.069613059793225, 11.324608974607777 ], [ 7.972167100905431, 11.296681443433812 ] ] } },
{ "type": "Feature", "properties": { "road_id": "R0123", "road_class": "Trunk B", "surface": "Gravel", "speed_kmh": 55 }, "geometry": { "type": "LineString", "coordinates": [ [ 8.18026379819562, 11.422409970704344 ], [ 8.290873437143823, 11.290068722929199 ], [ 8.451144927679564, 11.206700020023503 ] ] } },
{ "type": "Feature", "properties": { "road_id": "R0124", "road_class": "Trunk B", "surface": "Earth", "speed_kmh": 30 }, "geometry": { "type": "LineString", "coordinates": [ [ 9.496318540014659, 10.370436262942908 ], [ 9.65294546911778, 10.379444140945813 ], [ 9.750045905793195, 10.471292552260449 ] ] } },
{ "type": "Feature", "properties": { "road_id": "R0125", "road_class": "Local", "surface": "Gravel", "speed_kmh": 32 }, "geometry": { "type": "LineString", "coordinates": [ [ 9.496318540014659, 10.370436262942908 ], [ 9.313529790936352, 10.394928287760617 ], [ 9.164487215918353, 10.359997327335989 ] ] } },
{ "type": "Feature", "properties": { "road_id": "R0126", "road_class": "Local", "surface": "Earth", "speed_kmh": 18 }, "geometry": { "type": "LineString", "coordinates": [ [ 9.496318540014659, 10.370436262942908 ], [ 9.615680077041562, 10.21722952783899 ], [ 9.674279631418738, 10.058604872738417 ] ] } },
{ "type": "Feature", "properties": { "road_id": "R0127", "road_class": "Trunk B", "surface": "Gravel", "speed_kmh": 55 }, "geometry": { "type": "LineString", "coordinates": [ [ 6.045392949987643, 9.884242729522066 ], [ 6.213529582462161, 9.771606102672635 ], [ 6.406256037394415, 9.690306340322829 ] ] } },
{ "type": "Feature", "properties": { "road_id": "R0128", "road_class": "Trunk B", "surface": "Earth", "speed_kmh": 30 }, "geometry": { "type": "LineString", "coordinates": [ [ 7.190621533026248, 8.434834529591171 ], [ 7.080355360674984, 8.37489871646307 ], [ 6.91922563437382, 8.358321135727463 ] ] } },
{ "type": "Feature", "properties": { "road_id": "R0129", "road_class": "Trunk A", "surface": "Gravel", "speed_kmh": 80 }, "geometry": { "type": "LineString", "coordinates": [ [ 7.527613491840568, 10.7983195377632 ], [ 7.706492484194595, 10.758899153446347 ], [ 7.84272884536101, 10.706740726088233 ] ] } },
{ "type": "Feature", "properties": { "road_id": "R0130", "road_class": "Local", "surface": "Earth", "speed_kmh": 18 }, "geometry": { "type": "LineString", "coordinates": [ [ 7.527613491840568, 10.7983195377632 ], [ 7.54130752506715, 10.64206026701193 ], [ 7.63580685235394, 10.444634959571513 ] ] } },
{ "type": "Feature", "properties": { "road_id": "R0131", "road_class": "Trunk B", "surface": "Paved", "speed_kmh": 55 }, "geometry": { "type": "LineString", "coordinates": [ [ 7.84272884536101, 10.706740726088233 ], [ 7.700169018034081, 10.606610269380003 ], [ 7.63580685235394, 10.444634959571513 ] ] } },
{ "type": "Feature", "properties": { "road_id": "R0132", "road_class": "Trunk B", "surface": "Paved", "speed_kmh": 55 }, "geometry": { "type": "LineString", "coordinates": [ [ 7.84272884536101, 10.706740726088233 ], [ 8.051977903559187, 10.767972956081772 ], [ 8.170810130054543, 10.820201943581331 ] ] } },
{ "type": "Feature", "properties": { "road_id": "R0133", "road_class": "Trunk B", "surface": "Earth", "speed_kmh": 30 }, "geometry": { "type": "LineString", "coordinates": [ [ 6.704182069616349, 8.087754631468291 ], [ 6.849592858861841, 8.212704154378258 ], [ 6.91922563437382, 8.358321135727463 ] ] } },
{ "type": "Feature", "properties": { "road_id": "R0134", "road_class": "Local", "surface": "Paved", "speed_kmh": 32 }, "geometry": { "type": "LineString", "coordinates": [ [ 6.704182069616349, 8.087754631468291 ], [ 6.556968037903581, 8.306418801975603 ], [ 6.445425602202313, 8.457882767617891 ] ] } },
{ "type": "Feature", "properties": { "road_id": "R0135", "road_class": "Trunk A", "surface": "Paved", "speed_kmh": 80 }, "geometry": { "type": "LineString", "coordinates": [ [ 7.666501227364018, 7.571661267049162 ], [ 7.747054056427541, 7.494411954550087 ], [ 7.849210390163787, 7.414210713751885 ] ] } },
{ "type": "Feature", "properties": { "road_id": "R0136", "road_class": "Local", "surface": "Paved", "speed_kmh": 32 }, "geometry": { "type": "LineString", "coordinates": [ [ 7.666501227364018, 7.571661267049162 ], [ 7.446722931866602, 7.618320931963446 ], [ 7.268143788711647, 7.636984407505341 ] ] } },
{ "type": "Feature", "properties": { "road_id": "R0137", "road_class": "Local", "surface": "Earth", "speed_kmh": 18 }, "geometry": { "type": "LineString", "coordinates": [ [ 10.562728336419411, 10.561815301766293 ], [ 10.353259558700353, 10.551769707895824 ], [ 10.120622618092316, 10.507248121187143 ] ] } },
{ "type": "Feature", "properties": { "road_id": "R0138", "road_class": "Trunk B", "surface": "Gravel", "speed_kmh": 55 }, "geometry": { "type": "LineString", "coordinates": [ [ 10.026671044745237, 9.38226307143799 ], [ 10.251307957177804, 9.364297214056753 ], [ 10.382224609199378, 9.276236365888295 ] ] } },
{ "type": "Feature", "properties": { "road_id": "R0139", "road_class": "Local", "surface": "Earth", "speed_kmh": 18 }, "geometry": { "type": "LineString", "coordinates": [ [ 10.026671044745237, 9.38226307143799 ], [ 10.080817062100223, 9.603109435497215 ], [ 10.195879388851621, 9.766269391921798 ] ] } },
{ "type": "Feature", "properties": { "road_id": "R0140", "road_class": "Trunk A", "surface": "Paved", "speed_kmh": 80 }, "geometry": { "type": "LineString", "coordinates": [ [ 10.026671044745237, 9.38226307143799 ], [ 9.879991095478355, 9.203928997882121 ], [ 9.739139266366319, 9.05692516719642 ] ] } },
{ "type": "Feature", "properties": { "road_id": "R0141", "road_class": "Local", "surface": "Paved", "speed_kmh": 32 }, "geometry": { "type": "LineString", "coordinates": [ [ 10.120622618092316, 10.507248121187143 ], [ 10.018099592788035, 10.612339686094627 ], [ 9.904872303738339, 10.793165895965052 ] ] } },
{ "type": "Feature", "properties": { "road_id": "R0142", "road_class": "Local", "surface": "Earth", "speed_kmh": 18 }, "geometry": { "type": "LineString", "coordinates": [ [ 10.120622618092316, 10.507248121187143 ], [ 9.925990395000289, 10.477862892663193 ], [ 9.750045905793195, 10.471292552260449 ] ] } },
{ "type": "Feature", "properties": { "road_id": "R0143", "road_class": "Local", "surface": "Paved", "speed_kmh": 32 }, "geometry": { "type": "LineString", "coordinates": [ [ 10.120622618092316, 10.507248121187143 ], [ 10.075433770190999, 10.303427577248524 ], [ 9.993217048826221, 10.11792494766488 ] ] } },
{ "type": "Feature", "properties": { "road_id": "R0144", "road_class": "Trunk A", "surface": "Paved", "speed_kmh": 80 }, "geometry": { "type": "LineString", "coordinates": [ [ 5.728507153540689, 9.237286747448366 ], [ 5.849818601166757, 9.259173335609551 ], [ 5.986788444119936, 9.19857407019591 ] ] } },
{ "type": "Feature", "properties": { "road_id": "R0145", "road_class": "Local", "surface": "Gravel", "speed_kmh": 32 }, "geometry": { "type": "LineString", "coordinates": [ [ 5.728507153540689, 9.237286747448366 ], [ 5.942231319659629, 9.333361462204047 ], [ 6.194516730177138, 9.418037020112472 ] ] } },
{ "type": "Feature", "properties": { "road_id": "R0146", "road_class": "Local", "surface": "Earth", "speed_kmh": 18 }, "geometry": { "type": "LineString", "coordinates": [ [ 6.843194276642442, 9.892726103703106 ], [ 6.968629915033324, 9.766536137927261 ], [ 7.038450628831415, 9.748903507299904 ] ] } },
{ "type": "Feature", "properties": { "road_id": "R0147", "road_class": "Trunk A", "surface": "Earth", "speed_kmh": 44 }, "geometry": { "type": "LineString", "coordinates": [ [ 6.843194276642442, 9.892726103703106 ], [ 6.722984231543877, 9.941032294629551 ], [ 6.591091366131979, 9.96595746594055 ] ] } },
{ "type": "Feature", "properties": { "road_id": "R0148", "road_class": "Trunk B", "surface": "Paved", "speed_kmh": 55 }, "geometry": { "type": "LineString", "coordinates": [ [ 6.843194276642442, 9.892726103703106 ], [ 6.885590114359093, 10.058651485914563 ], [ 6.952015381992922, 10.23157449355625 ] ] } },
{ "type": "Feature", "properties": { "road_id": "R0149", "road_class": "Trunk A", "surface": "Paved", "speed_kmh": 80 }, "geometry": { "type": "LineString", "coordinates": [ [ 6.594354283498719, 8.723417940276722 ], [ 6.510071291969489, 8.642673999365504 ], [ 6.445425602202313, 8.457882767617891 ] ] } },
{ "type": "Feature", "properties": { "road_id": "R0150", "road_class": "Local", "surface": "Gravel", "speed_kmh": 32 }, "geometry": { "type": "LineString", "coordinates": [ [ 6.594354283498719, 8.723417940276722 ], [ 6.706207793900584, 8.723724582536914 ], [ 6.911573730316479, 8.786794521779745 ] ] } },
{ "type": "Feature", "properties": { "road_id": "R0151", "road_class": "Local", "surface": "Paved", "speed_kmh": 32 }, "geometry": { "type": "LineString", "coordinates": [ [ 6.594354283498719, 8.723417940276722 ], [ 6.375211074697667, 8.803835917744797 ], [ 6.205565264449305, 8.881994333881096 ] ] } },
{ "type": "Feature", "properties": { "road_id": "R0152", "road_class": "Trunk B", "surface": "Earth", "speed_kmh": 30 }, "geometry": { "type": "LineString", "coordinates": [ [ 8.968489544965824, 11.532170626016615 ], [ 9.137164786395596, 11.323813193906627 ], [ 9.284368905525486, 11.254834609080202 ] ] } },
{ "type": "Feature", "properties": { "road_id": "R0153", "road_class": "Local", "surface": "Gravel", "speed_kmh": 32 }, "geometry": { "type": "LineString", "coordinates": [ [ 8.24920478925254, 8.889162451179995 ], [ 8.233581955745931, 8.726163345861496 ], [ 8.269187201879047, 8.538867894811899 ] ] } },
{ "type": "Feature", "properties": { "road_id": "R0154", "road_class": "Trunk B", "surface": "Paved", "speed_kmh": 55 }, "geometry": { "type": "LineString", "coordinates": [ [ 8.24920478925254, 8.889162451179995 ], [ 8.389357204089022, 8.850167355839076 ], [ 8.587228993212687, 8.792586922367407 ] ] } },
{ "type": "Feature", "properties": { "road_id": "R0155", "road_class": "Local", "surface": "Gravel", "speed_kmh": 32 }, "geometry": { "type": "LineString", "coordinates": [ [ 10.382224609199378, 9.276236365888295 ], [ 10.17960692896202, 9.088082375109238 ], [ 10.010850498705196, 8.938950205335942 ] ] } },
{ "type": "Feature", "properties": { "road_id": "R0156", "road_class": "Trunk B", "surface": "Paved", "speed_kmh": 55 }, "geometry": { "type": "LineString", "coordinates": [ [ 10.382224609199378, 9.276236365888295 ], [ 10.520973337717546, 9.541577783767091 ], [ 10.57799992752993, 9.741476737342769 ] ] } },
{ "type": "Feature", "properties": { "road_id": "R0157", "road_class": "Trunk B", "surface": "Gravel", "speed_kmh": 55 }, "geometry": { "type": "LineString", "coordinates": [ [ 7.724830443503041, 9.648660202505461 ], [ 7.582932862514225, 9.568871458039704 ], [ 7.411483665203487, 9.572796166343142 ] ] } },
{ "type": "Feature", "properties": { "road_id": "R0158", "road_class": "Trunk B", "surface": "Paved", "speed_kmh": 55 }, "geometry": { "type": "LineString", "coordinates": [ [ 9.601497209060179, 9.255940468561421 ], [ 9.68945115781816, 9.145934620133749 ], [ 9.739139266366319, 9.05692516719642 ] ] } },
{ "type": "Feature", "properties": { "road_id": "R0159", "road_class": "Trunk B", "surface": "Gravel", "speed_kmh": 55 }, "geometry": { "type": "LineString", "coordinates": [ [ 6.194516730177138, 9.418037020112472 ], [ 6.084221241801337, 9.314194408444445 ], [ 5.986788444119936, 9.19857407019591 ] ] } },
{ "type": "Feature", "properties": { "road_id": "R0160", "road_class": "Trunk B", "surface": "Earth", "speed_kmh": 30 }, "geometry": { "type": "LineString", "coordinates": [ [ 6.194516730177138, 9.418037020112472 ], [ 6.297270150865045, 9.509029088073104 ], [ 6.406256037394415, 9.690306340322829 ] ] } },
{ "type": "Feature", "properties": { "road_id": "R0161", "road_class": "Trunk B", "surface": "Paved", "speed_kmh": 55 }, "geometry": { "type": "LineString", "coordinates": [ [ 7.972167100905431, 11.296681443433812 ], [ 8.226393170133832, 11.257094997917278 ], [ 8.451144927679564, 11.206700020023503 ] ] } },
{ "type": "Feature", "properties": { "road_id": "R0162", "road_class": "Local", "surface": "Earth", "speed_kmh": 18 }, "geometry": { "type": "LineString", "coordinates": [ [ 9.993217048826221, 10.11792494766488 ], [ 9.859927039570563, 10.074654229562984 ], [ 9.674279631418738, 10.058604872738417 ] ] } },
{ "type": "Feature", "properties": { "road_id": "R0163", "road_class": "Trunk A", "surface": "Gravel", "speed_kmh": 80 }, "geometry": { "type": "LineString", "coordinates": [ [ 9.993217048826221, 10.11792494766488 ], [ 10.207844390234339, 10.111671346467656 ], [ 10.387920476334909, 10.109919145977194 ] ] } },
{ "type": "Feature", "properties": { "road_id": "R0164", "road_class": "Trunk B", "surface": "Paved", "speed_kmh": 55 }, "geometry": { "type": "LineString", "coordinates": [ [ 9.993217048826221, 10.11792494766488 ], [ 10.106429127026853, 9.933621849946412 ], [ 10.195879388851621, 9.766269391921798 ] ] } },
{ "type": "Feature", "properties": { "road_id": "R0165", "road_class": "Local", "surface": "Earth", "speed_kmh": 18 }, "geometry": { "type": "LineString", "coordinates": [ [ 9.079670950495208, 10.779171937095303 ], [ 9.095374416774023, 10.547227721297775 ], [ 9.164487215918353, 10.359997327335989 ] ] } },
{ "type": "Feature", "properties": { "road_id": "R0166", "road_class": "Local", "surface": "Gravel", "speed_kmh": 32 }, "geometry": { "type": "LineString", "coordinates": [ [ 9.079670950495208, 10.779171937095303 ], [ 9.028090365603838, 10.986120422465383 ], [ 8.964875835750217, 11.222470529042754 ] ] } },
{ "type": "Feature", "properties": { "road_id": "R0167", "road_class": "Trunk B", "surface": "Gravel", "speed_kmh": 55 }, "geometry": { "type": "LineString", "coordinates": [ [ 8.533948414570364, 7.475567751889352 ], [ 8.561420052870277, 7.623432469234181 ], [ 8.548969971208454, 7.807695777183391 ] ] } },
{ "type": "Feature", "properties": { "road_id": "R0168", "road_class": "Trunk B", "surface": "Paved", "speed_kmh": 55 }, "geometry": { "type": "LineString", "coordinates": [ [ 8.533948414570364, 7.475567751889352 ], [ 8.817795914523554, 7.636796765827953 ], [ 9.05910623754178, 7.740560807383613 ] ] } },
{ "type": "Feature", "properties": { "road_id": "R0169", "road_class": "Local", "surface": "Gravel", "speed_kmh": 32 }, "geometry": { "type": "LineString", "coordinates": [ [ 8.906959283181518, 8.003526691560833 ], [ 8.993164461051959, 7.965838386194062 ], [ 9.05910623754178, 7.740560807383613 ] ] } },
{ "type": "Feature", "properties": { "road_id": "R0170", "road_class": "Trunk A", "surface": "Paved", "speed_kmh": 80 }, "geometry": { "type": "LineString", "coordinates": [ [ 10.195879388851621, 9.766269391921798 ], [ 10.297997765152834, 9.98429919469196 ], [ 10.387920476334909, 10.109919145977194 ] ] } },
{ "type": "Feature", "properties": { "road_id": "R0171", "road_class": "Trunk B", "surface": "Earth", "speed_kmh": 30 }, "geometry": { "type": "LineString", "coordinates": [ [ 10.179701725310846, 8.734253377048436 ], [ 10.093850587450254, 8.885022832141452 ], [ 10.010850498705196, 8.938950205335942 ] ] } },
{ "type": "Feature", "properties": { "road_id": "R0172", "road_class": "Trunk B", "surface": "Earth", "speed_kmh": 30 }, "geometry": { "type": "LineString", "coordinates": [ [ 10.179701725310846, 8.734253377048436 ], [ 9.972009056180783, 8.61990847967148 ], [ 9.779694853872533, 8.555521478924442 ] ] } },
{ "type": "Feature", "properties": { "road_id": "R0173", "road_class": "Local", "surface": "Earth", "speed_kmh": 18 }, "geometry": { "type": "LineString", "coordinates": [ [ 10.179701725310846, 8.734253377048436 ], [ 10.047856954355773, 8.566363282362522 ], [ 9.905195286708626, 8.31766928447345 ] ] } },
{ "type": "Feature", "properties": { "road_id": "R0174", "road_class": "Trunk B", "surface": "Earth", "speed_kmh": 30 }, "geometry": { "type": "LineString", "coordinates": [ [ 7.591838370930123, 9.125135002509198 ], [ 7.740793998351483, 9.158336906792821 ], [ 7.887731974309252, 9.202838306640844 ] ] } },
{ "type": "Feature", "properties": { "road_id": "R0175", "road_class": "Local", "surface": "Paved", "speed_kmh": 32 }, "geometry": { "type": "LineString", "coordinates": [ [ 7.34771172980713, 11.15548887079435 ], [ 7.290437385089426, 10.941940547163854 ], [ 7.198913984924717, 10.811341007801396 ] ] } },
{ "type": "Feature", "properties": { "road_id": "R0176", "road_class": "Trunk A", "surface": "Earth", "speed_kmh": 44 }, "geometry": { "type": "LineString", "coordinates": [ [ 7.863666694102392, 8.642536148454818 ], [ 8.005791930501355, 8.510192464319937 ], [ 8.269187201879047, 8.538867894811899 ] ] } },
{ "type": "Feature", "properties": { "road_id": "R0177", "road_class": "Local", "surface": "Paved", "speed_kmh": 32 }, "geometry": { "type": "LineString", "coordinates": [ [ 7.863666694102392, 8.642536148454818 ], [ 7.728699030123908, 8.525605612900129 ], [ 7.501181220489037, 8.428674801752825 ] ] } },
{ "type": "Feature", "properties": { "road_id": "R0178", "road_class": "Trunk A", "surface": "Gravel", "speed_kmh": 80 }, "geometry": { "type": "LineString", "coordinates": [ [ 7.863666694102392, 8.642536148454818 ], [ 8.053941884187497, 8.771828186487243 ], [ 8.24920478925254, 8.889162451179995 ] ] } },
{ "type": "Feature", "properties": { "road_id": "R0179", "road_class": "Trunk B", "surface": "Gravel", "speed_kmh": 55 }, "geometry": { "type": "LineString", "coordinates": [ [ 9.904872303738339, 10.793165895965052 ], [ 10.001626474815813, 10.948792430579733 ], [ 10.067823822003461, 11.092445672814332 ] ] } },
{ "type": "Feature", "properties": { "road_id": "R0180", "road_class": "Local", "surface": "Paved", "speed_kmh": 32 }, "geometry": { "type": "LineString", "coordinates": [ [ 9.904872303738339, 10.793165895965052 ], [ 9.795223715719885, 10.637691511134072 ], [ 9.750045905793195, 10.471292552260449 ] ] } },
{ "type": "Feature", "properties": { "road_id": "R0181", "road_class": "Local", "surface": "Gravel", "speed_kmh": 32 }, "geometry": { "type": "LineString", "coordinates": [ [ 8.269187201879047, 8.538867894811899 ], [ 8.408203182022703, 8.672775494071136 ], [ 8.587228993212687, 8.792586922367407 ] ] } },
{ "type": "Feature", "properties": { "road_id": "R0182", "road_class": "Local", "surface": "Gravel", "speed_kmh": 32 }, "geometry": { "type": "LineString", "coordinates": [ [ 8.170810130054543, 10.820201943581331 ], [ 8.345910969496066, 10.973777231420119 ], [ 8.451144927679564, 11.206700020023503 ] ] } },
{ "type": "Feature", "properties": { "road_id": "R0183", "road_class": "Local", "surface": "Gravel", "speed_kmh": 32 }, "geometry": { "type": "LineString", "coordinates": [ [ 8.170810130054543, 10.820201943581331 ], [ 8.411082078891321, 10.686276625664664 ], [ 8.63454921661865, 10.629021352091643 ] ] } },
{ "type": "Feature", "properties": { "road_id": "R0184", "road_class": "Local", "surface": "Paved", "speed_kmh": 32 }, "geometry": { "type": "LineString", "coordinates": [ [ 6.406256037394415, 9.690306340322829 ], [ 6.509183086842709, 9.823481586004828 ], [ 6.591091366131979, 9.96595746594055 ] ] } },
{ "type": "Feature", "properties": { "road_id": "R0185", "road_class": "Trunk B", "surface": "Earth", "speed_kmh": 30 }, "geometry": { "type": "LineString", "coordinates": [ [ 5.986788444119936, 9.19857407019591 ], [ 6.103243910129588, 9.045535647278239 ], [ 6.205565264449305, 8.881994333881096 ] ] } },
{ "type": "Feature", "properties": { "road_id": "R0186", "road_class": "Local", "surface": "Gravel", "speed_kmh": 32 }, "geometry": { "type": "LineString", "coordinates": [ [ 9.739139266366319, 9.05692516719642 ], [ 9.794188092695741, 8.990967727043699 ], [ 10.010850498705196, 8.938950205335942 ] ] } },
{ "type": "Feature", "properties": { "road_id": "R0187", "road_class": "Local", "surface": "Paved", "speed_kmh": 32 }, "geometry": { "type": "LineString", "coordinates": [ [ 9.739139266366319, 9.05692516719642 ], [ 9.565526930524824, 8.872433103360812 ], [ 9.474368956663264, 8.811252188806199 ] ] } },
{ "type": "Feature", "properties": { "road_id": "R0188", "road_class": "Local", "surface": "Earth", "speed_kmh": 18 }, "geometry": { "type": "LineString", "coordinates": [ [ 7.682063233387649, 10.028928862693245 ], [ 7.719073620107034, 9.854453534385586 ], [ 7.724830443503041, 9.648660202505461 ] ] } },
{ "type": "Feature", "properties": { "road_id": "R0189", "road_class": "Local", "surface": "Paved", "speed_kmh": 32 }, "geometry": { "type": "LineString", "coordinates": [ [ 7.682063233387649, 10.028928862693245 ], [ 7.449761227609915, 10.038509487604449 ], [ 7.279112117200917, 10.042402324870666 ] ] } },
{ "type": "Feature", "properties": { "road_id": "R0190", "road_class": "Local", "surface": "Gravel", "speed_kmh": 32 }, "geometry": { "type": "LineString", "coordinates": [ [ 6.445425602202313, 8.457882767617891 ], [ 6.675907584918091, 8.401677264530266 ], [ 6.91922563437382, 8.358321135727463 ] ] } },
{ "type": "Feature", "properties": { "road_id": "R0191", "road_class": "Local", "surface": "Gravel", "speed_kmh": 32 }, "geometry": { "type": "LineString", "coordinates": [ [ 7.849210390163787, 7.414210713751885 ], [ 7.686422698410883, 7.687223888872015 ], [ 7.484973128466805, 7.835445065205331 ] ] } },
{ "type": "Feature", "properties": { "road_id": "R0192", "road_class": "Local", "surface": "Paved", "speed_kmh": 32 }, "geometry": { "type": "LineString", "coordinates": [ [ 7.038450628831415, 9.748903507299904 ], [ 7.165495046381971, 9.8752973035804 ], [ 7.279112117200917, 10.042402324870666 ] ] } },
{ "type": "Feature", "properties": { "road_id": "R0193", "road_class": "Local", "surface": "Gravel", "speed_kmh": 32 }, "geometry": { "type": "LineString", "coordinates": [ [ 8.63454921661865, 10.629021352091643 ], [ 8.712010889105414, 10.442813363524687 ], [ 8.783004876313395, 10.270068021489454 ] ] } },
{ "type": "Feature", "properties": { "road_id": "R0194", "road_class": "Local", "surface": "Paved", "speed_kmh": 32 }, "geometry": { "type": "LineString", "coordinates": [ [ 8.63454921661865, 10.629021352091643 ], [ 8.825686992905064, 10.703105022545078 ], [ 9.079670950495208, 10.779171937095303 ] ] } },
{ "type": "Feature", "properties": { "road_id": "R0195", "road_class": "Local", "surface": "Earth", "speed_kmh": 18 }, "geometry": { "type": "LineString", "coordinates": [ [ 8.548969971208454, 7.807695777183391 ], [ 8.674502058930875, 7.929313661353668 ], [ 8.906959283181518, 8.003526691560833 ] ] } },
{ "type": "Feature", "properties": { "road_id": "R0196", "road_class": "Trunk B", "surface": "Earth", "speed_kmh": 30 }, "geometry": { "type": "LineString", "coordinates": [ [ 8.548969971208454, 7.807695777183391 ], [ 8.426595838805005, 8.006966987556417 ], [ 8.33064523895418, 8.157545205511449 ] ] } },
{ "type": "Feature", "properties": { "road_id": "R0197", "road_class": "Local", "surface": "Paved", "speed_kmh": 32 }, "geometry": { "type": "LineString", "coordinates": [ [ 9.769962936772973, 11.302967502083449 ], [ 9.932669320065092, 11.207194310395051 ], [ 10.067823822003461, 11.092445672814332 ] ] } },
{ "type": "Feature", "properties": { "road_id": "R0198", "road_class": "Local", "surface": "Earth", "speed_kmh": 18 }, "geometry": { "type": "LineString", "coordinates": [ [ 9.769962936772973, 11.302967502083449 ], [ 9.539941664461651, 11.256099467440823 ], [ 9.284368905525486, 11.254834609080202 ] ] } },
{ "type": "Feature", "properties": { "road_id": "R0199", "road_class": "Local", "surface": "Paved", "speed_kmh": 32 }, "geometry": { "type": "LineString", "coordinates": [ [ 8.941800702831175, 8.948995893881015 ], [ 9.031112795264519, 8.838037498718242 ], [ 9.113242731633786, 8.765185366334542 ] ] } },
{ "type": "Feature", "properties": { "road_id": "R0200", "road_class": "Trunk B", "surface": "Gravel", "speed_kmh": 55 }, "geometry": { "type": "LineString", "coordinates": [ [ 8.941800702831175, 8.948995893881015 ], [ 8.777935068438451, 8.846510780653659 ], [ 8.587228993212687, 8.792586922367407 ] ] } },
{ "type": "Feature", "properties": { "road_id": "R0201", "road_class": "Trunk B", "surface": "Gravel", "speed_kmh": 55 }, "geometry": { "type": "LineString", "coordinates": [ [ 9.05910623754178, 7.740560807383613 ], [ 8.788639900389358, 7.746214703078107 ], [ 8.548969971208454, 7.807695777183391 ] ] } },
{ "type": "Feature", "properties": { "road_id": "R0202", "road_class": "Trunk A", "surface": "Gravel", "speed_kmh": 80 }, "geometry": { "type": "LineString", "coordinates": [ [ 9.05910623754178, 7.740560807383613 ], [ 9.261729751451233, 7.942672082242122 ], [ 9.447947975623125, 8.121683208477307 ] ] } },
{ "type": "Feature", "properties": { "road_id": "R0203", "road_class": "Local", "surface": "Earth", "speed_kmh": 18 }, "geometry": { "type": "LineString", "coordinates": [ [ 8.362618952372264, 10.222836584624247 ], [ 8.570186606885871, 10.267192152620852 ], [ 8.783004876313395, 10.270068021489454 ] ] } },
{ "type": "Feature", "properties": { "road_id": "R0204", "road_class": "Local", "surface": "Paved", "speed_kmh": 32 }, "geometry": { "type": "LineString", "coordinates": [ [ 8.362618952372264, 10.222836584624247 ], [ 8.522456943478058, 10.033426698391343 ], [ 8.662282529531188, 9.872324225812715 ] ] } },
{ "type": "Feature", "properties": { "road_id": "R0205", "road_class": "Trunk B", "surface": "Earth", "speed_kmh": 30 }, "geometry": { "type": "LineString", "coordinates": [ [ 7.887731974309252, 9.202838306640844 ], [ 7.986633574325656, 9.366315741014214 ], [ 8.044673243627393, 9.563108723635205 ] ] } },
{ "type": "Feature", "properties": { "road_id": "R0206", "road_class": "Local", "surface": "Paved", "speed_kmh": 32 }, "geometry": { "type": "LineString", "coordinates": [ [ 8.783004876313395, 10.270068021489454 ], [ 8.980140943667269, 10.338800726061008 ], [ 9.164487215918353, 10.359997327335989 ] ] } },
{ "type": "Feature", "properties": { "road_id": "R0207", "road_class": "Local", "surface": "Paved", "speed_kmh": 32 }, "geometry": { "type": "LineString", "coordinates": [ [ 6.205565264449305, 8.881994333881096 ], [ 6.394590765142931, 9.060268954475696 ], [ 6.539722918497143, 9.222305327076992 ] ] } },
{ "type": "Feature", "properties": { "road_id": "R0208", "road_class": "Trunk B", "surface": "Gravel", "speed_kmh": 55 }, "geometry": { "type": "LineString", "coordinates": [ [ 9.113242731633786, 8.765185366334542 ], [ 9.286606730970707, 8.762958723056645 ], [ 9.474368956663264, 8.811252188806199 ] ] } },
{ "type": "Feature", "properties": { "road_id": "R0209", "road_class": "Local", "surface": "Earth", "speed_kmh": 18 }, "geometry": { "type": "LineString", "coordinates": [ [ 9.113242731633786, 8.765185366334542 ], [ 9.188887786817324, 8.60056775284411 ], [ 9.394044347327135, 8.48179830738599 ] ] } },
{ "type": "Feature", "properties": { "road_id": "R0210", "road_class": "Local", "surface": "Paved", "speed_kmh": 32 }, "geometry": { "type": "LineString", "coordinates": [ [ 7.279112117200917, 10.042402324870666 ], [ 7.110141595950524, 10.173762545437578 ], [ 6.952015381992922, 10.23157449355625 ] ] } },
{ "type": "Feature", "properties": { "road_id": "R0211", "road_class": "Local", "surface": "Earth", "speed_kmh": 18 }, "geometry": { "type": "LineString", "coordinates": [ [ 7.411483665203487, 9.572796166343142 ], [ 7.216483497750985, 9.697963418731151 ], [ 7.038450628831415, 9.748903507299904 ] ] } },
{ "type": "Feature", "properties": { "road_id": "R0212", "road_class": "Trunk A", "surface": "Earth", "speed_kmh": 44 }, "geometry": { "type": "LineString", "coordinates": [ [ 10.010850498705196, 8.938950205335942 ], [ 9.989327501868585, 9.132498639807897 ], [ 10.026671044745237, 9.38226307143799 ] ] } },
{ "type": "Feature", "properties": { "road_id": "R0213", "road_class": "Local", "surface": "Paved", "speed_kmh": 32 }, "geometry": { "type": "LineString", "coordinates": [ [ 6.911573730316479, 8.786794521779745 ], [ 6.855635305975247, 8.532509522660785 ], [ 6.91922563437382, 8.358321135727463 ] ] } }
]
}
